[{"OBJECT_NAME":"STARLINK-2065","OBJECT_ID":"2021-012BE","EPOCH":"2026-03-09T06:02:29.895360","MEAN_MOTION":15.6876286,"ECCENTRICITY":0.0006678,"INCLINATION":53.1532,"RA_OF_ASC_NODE":11.1448,"ARG_OF_PERICENTER":48.9965,"MEAN_ANOMALY":311.1629,"EPHEMERIS_TYPE":0,"CLASSIFICATION_TYPE":"U","NORAD_CAT_ID":47672,"ELEMENT_SET_NO":999,"REV_AT_EPOCH":28079,"BSTAR":0.00096339732,"MEAN_MOTION_DOT":0.00113313,"MEAN_MOTION_DDOT":0},{"OBJECT_NAME":"TUSUR GO (RS78S)","OBJECT_ID":"2024-199AZ","EPOCH":"2026-03-09T22:48:41.341536","MEAN_MOTION":15.7089308,"ECCENTRICITY":0.00036127,"INCLINATION":97.3018,"RA_OF_ASC_NODE":306.7757,"ARG_OF_PERICENTER":269.724,"MEAN_ANOMALY":90.3609,"EPHEMERIS_TYPE":0,"CLASSIFICATION_TYPE":"U","NORAD_CAT_ID":61782,"ELEMENT_SET_NO":999,"REV_AT_EPOCH":11926,"BSTAR":0.0013446465,"MEAN_MOTION_DOT":0.00170473,"MEAN_MOTION_DDOT":0}]
